{
  "type": "FeatureCollection",
  "features": [
    {
      "type": "Feature",
      "properties": {
        "norad_id": 30629,
        "name": "FENGYUN 1C DEB",
        "group": "fengyun-1c-debris",
        "lat": 25.8539811699371,
        "lon": 71.50994062956961,
        "alt_km": 699.9058068807317,
        "timestamp": "2025-12-06T18:50:10.446086+00:00",
        "meta_object_name": "FENGYUN 1C DEB",
        "meta_object_id": "1999-025ANL",
        "meta_epoch": "2025-12-06T05:40:58.914336",
        "meta_mean_motion": 14.59289542,
        "meta_eccentricity": 0.00076982,
        "meta_inclination": 99.2519,
        "meta_ra_of_asc_node": 75.4301,
        "meta_arg_of_pericenter": 213.6802,
        "meta_mean_anomaly": 175.115,
        "meta_ephemeris_type": 0,
        "meta_classification_type": "U",
        "meta_norad_cat_id": 30629,
        "meta_element_set_no": 999,
        "meta_rev_at_epoch": 97795,
        "meta_bstar": 0.0047632252,
        "meta_mean_motion_dot": 0.00022533,
        "meta_mean_motion_ddot": 0,
        "tle_line1": "1 30629U 99025ANL 25340.23679299  .00022533  00000+0  47632-2 0  9994",
        "tle_line2": "2 30629  99.2519  75.4301 0007698 213.6802 175.1150 14.59289542977955"
      },
      "geometry": {
        "type": "Point",
        "coordinates": [
          71.50994062956961,
          25.8539811699371
        ]
      }
    },
    {
      "type": "Feature",
      "properties": {
        "norad_id": 30630,
        "name": "FENGYUN 1C DEB",
        "group": "fengyun-1c-debris",
        "lat": 57.542346000469514,
        "lon": 138.86413288471655,
        "alt_km": 796.0740456325038,
        "timestamp": "2025-12-06T18:50:10.446098+00:00",
        "meta_object_name": "FENGYUN 1C DEB",
        "meta_object_id": "1999-025ANM",
        "meta_epoch": "2025-12-05T10:37:21.233568",
        "meta_mean_motion": 14.22333641,
        "meta_eccentricity": 0.00259793,
        "meta_inclination": 99.1726,
        "meta_ra_of_asc_node": 152.185,
        "meta_arg_of_pericenter": 95.1248,
        "meta_mean_anomaly": 294.8365,
        "meta_ephemeris_type": 0,
        "meta_classification_type": "U",
        "meta_norad_cat_id": 30630,
        "meta_element_set_no": 999,
        "meta_rev_at_epoch": 97109,
        "meta_bstar": 0.0016099741,
        "meta_mean_motion_dot": 3.546e-05,
        "meta_mean_motion_ddot": 0,
        "tle_line1": "1 30630U 99025ANM 25339.44260687  .00003546  00000+0  16100-2 0  9993",
        "tle_line2": "2 30630  99.1726 152.1850 0025979  95.1248 294.8365 14.22333641971093"
      },
      "geometry": {
        "type": "Point",
        "coordinates": [
          138.86413288471655,
          57.542346000469514
        ]
      }
    },
    {
      "type": "Feature",
      "properties": {
        "norad_id": 30632,
        "name": "FENGYUN 1C DEB",
        "group": "fengyun-1c-debris",
        "lat": 69.31765610836408,
        "lon": -43.97560771633308,
        "alt_km": 676.3072182069254,
        "timestamp": "2025-12-06T18:50:10.446108+00:00",
        "meta_object_name": "FENGYUN 1C DEB",
        "meta_object_id": "1999-025ANP",
        "meta_epoch": "2025-12-05T07:59:18.169152",
        "meta_mean_motion": 14.62323958,
        "meta_eccentricity": 0.0015596,
        "meta_inclination": 98.8234,
        "meta_ra_of_asc_node": 110.1784,
        "meta_arg_of_pericenter": 191.1743,
        "meta_mean_anomaly": 198.1246,
        "meta_ephemeris_type": 0,
        "meta_classification_type": "U",
        "meta_norad_cat_id": 30632,
        "meta_element_set_no": 999,
        "meta_rev_at_epoch": 97583,
        "meta_bstar": 0.0066485205,
        "meta_mean_motion_dot": 0.00033742,
        "meta_mean_motion_ddot": 0,
        "tle_line1": "1 30632U 99025ANP 25339.33284918  .00033742  00000+0  66485-2 0  9998",
        "tle_line2": "2 30632  98.8234 110.1784 0015596 191.1743 198.1246 14.62323958975830"
      },
      "geometry": {
        "type": "Point",
        "coordinates": [
          -43.97560771633308,
          69.31765610836408
        ]
      }
    },
    {
      "type": "Feature",
      "properties": {
        "norad_id": 30633,
        "name": "FENGYUN 1C DEB",
        "group": "fengyun-1c-debris",
        "lat": 17.371755333172526,
        "lon": 28.8717152003088,
        "alt_km": 918.0141599454864,
        "timestamp": "2025-12-06T18:50:10.446118+00:00",
        "meta_object_name": "FENGYUN 1C DEB",
        "meta_object_id": "1999-025ANQ",
        "meta_epoch": "2025-12-05T15:00:39.240288",
        "meta_mean_motion": 14.04356922,
        "meta_eccentricity": 0.01308547,
        "meta_inclination": 98.4207,
        "meta_ra_of_asc_node": 205.1401,
        "meta_arg_of_pericenter": 280.4618,
        "meta_mean_anomaly": 144.9925,
        "meta_ephemeris_type": 0,
        "meta_classification_type": "U",
        "meta_norad_cat_id": 30633,
        "meta_element_set_no": 999,
        "meta_rev_at_epoch": 95792,
        "meta_bstar": 0.0016938949,
        "meta_mean_motion_dot": 2.869e-05,
        "meta_mean_motion_ddot": 0,
        "tle_line1": "1 30633U 99025ANQ 25339.62545417  .00002869  00000+0  16939-2 0  9990",
        "tle_line2": "2 30633  98.4207 205.1401 0130854 280.4618 144.9925 14.04356922957922"
      },
      "geometry": {
        "type": "Point",
        "coordinates": [
          28.8717152003088,
          17.371755333172526
        ]
      }
    },
    {
      "type": "Feature",
      "properties": {
        "norad_id": 30634,
        "name": "FENGYUN 1C DEB",
        "group": "fengyun-1c-debris",
        "lat": 53.10841623878085,
        "lon": -49.18458486317461,
        "alt_km": 809.7307701232603,
        "timestamp": "2025-12-06T18:50:10.446128+00:00",
        "meta_object_name": "FENGYUN 1C DEB",
        "meta_object_id": "1999-025ANR",
        "meta_epoch": "2025-12-05T22:17:00.676320",
        "meta_mean_motion": 14.09635104,
        "meta_eccentricity": 0.01205388,
        "meta_inclination": 99.2913,
        "meta_ra_of_asc_node": 322.5293,
        "meta_arg_of_pericenter": 115.5024,
        "meta_mean_anomaly": 276.4696,
        "meta_ephemeris_type": 0,
        "meta_classification_type": "U",
        "meta_norad_cat_id": 30634,
        "meta_element_set_no": 999,
        "meta_rev_at_epoch": 95521,
        "meta_bstar": 0.0028327612,
        "meta_mean_motion_dot": 5.267e-05,
        "meta_mean_motion_ddot": 0,
        "tle_line1": "1 30634U 99025ANR 25339.92848005  .00005267  00000+0  28328-2 0  9993",
        "tle_line2": "2 30634  99.2913 322.5293 0120538 115.5024 276.4696 14.09635104955219"
      },
      "geometry": {
        "type": "Point",
        "coordinates": [
          -49.18458486317461,
          53.10841623878085
        ]
      }
    },
    {
      "type": "Feature",
      "properties": {
        "norad_id": 30639,
        "name": "FENGYUN 1C DEB",
        "group": "fengyun-1c-debris",
        "lat": -40.44003288724827,
        "lon": 100.31447110023393,
        "alt_km": 745.9821497816274,
        "timestamp": "2025-12-06T18:50:10.446138+00:00",
        "meta_object_name": "FENGYUN 1C DEB",
        "meta_object_id": "1999-025ANW",
        "meta_epoch": "2025-12-05T12:50:41.481312",
        "meta_mean_motion": 14.32158076,
        "meta_eccentricity": 0.00668358,
        "meta_inclination": 99.0193,
        "meta_ra_of_asc_node": 91.2358,
        "meta_arg_of_pericenter": 302.2906,
        "meta_mean_anomaly": 57.1813,
        "meta_ephemeris_type": 0,
        "meta_classification_type": "U",
        "meta_norad_cat_id": 30639,
        "meta_element_set_no": 999,
        "meta_rev_at_epoch": 96616,
        "meta_bstar": 0.0052811575,
        "meta_mean_motion_dot": 0.00014553,
        "meta_mean_motion_ddot": 0,
        "tle_line1": "1 30639U 99025ANW 25339.53520233  .00014553  00000+0  52812-2 0  9998",
        "tle_line2": "2 30639  99.0193  91.2358 0066835 302.2906  57.1813 14.32158076966162"
      },
      "geometry": {
        "type": "Point",
        "coordinates": [
          100.31447110023393,
          -40.44003288724827
        ]
      }
    },
    {
      "type": "Feature",
      "properties": {
        "norad_id": 30640,
        "name": "FENGYUN 1C DEB",
        "group": "fengyun-1c-debris",
        "lat": 65.9869053421253,
        "lon": -107.11074780527606,
        "alt_km": 778.7182792722206,
        "timestamp": "2025-12-06T18:50:10.446148+00:00",
        "meta_object_name": "FENGYUN 1C DEB",
        "meta_object_id": "1999-025ANX",
        "meta_epoch": "2025-12-05T22:12:22.076928",
        "meta_mean_motion": 14.145743,
        "meta_eccentricity": 0.00813405,
        "meta_inclination": 99.058,
        "meta_ra_of_asc_node": 51.0355,
        "meta_arg_of_pericenter": 119.6801,
        "meta_mean_anomaly": 297.6834,
        "meta_ephemeris_type": 0,
        "meta_classification_type": "U",
        "meta_norad_cat_id": 30640,
        "meta_element_set_no": 999,
        "meta_rev_at_epoch": 96349,
        "meta_bstar": 0.0026768953,
        "meta_mean_motion_dot": 5.265e-05,
        "meta_mean_motion_ddot": 0,
        "tle_line1": "1 30640U 99025ANX 25339.92525552  .00005265  00000+0  26769-2 0  9994",
        "tle_line2": "2 30640  99.0580  51.0355 0081340 119.6801 297.6834 14.14574300963496"
      },
      "geometry": {
        "type": "Point",
        "coordinates": [
          -107.11074780527606,
          65.9869053421253
        ]
      }
    }
  ]
}